{"fetched_at":"2026-07-16T06:42:35.236Z","source":"https://celestrak.org/NORAD/elements/gp.php?GROUP=planet&FORMAT=JSON","constellation":"superdove","records":[{"OBJECT_NAME":"FLOCK 4H-16","OBJECT_ID":"2025-276BF","EPOCH":"2026-07-15T17:29:36.310272","CLASSIFICATION_TYPE":"U","MEAN_MOTION":15.20155057,"ECCENTRICITY":0.00028143,"INCLINATION":97.4228,"RA_OF_ASC_NODE":269.8584,"ARG_OF_PERICENTER":253.9954,"MEAN_ANOMALY":106.0971,"EPHEMERIS_TYPE":0,"NORAD_CAT_ID":66719,"ELEMENT_SET_NO":999,"REV_AT_EPOCH":3475,"BSTAR":0.00017531632,"MEAN_MOTION_DOT":0.00003725,"MEAN_MOTION_DDOT":0},{"OBJECT_NAME":"FLOCK 4H-18","OBJECT_ID":"2025-276BH","EPOCH":"2026-07-15T17:38:31.105536","CLASSIFICATION_TYPE":"U","MEAN_MOTION":15.20096628,"ECCENTRICITY":0.00022051,"INCLINATION":97.4171,"RA_OF_ASC_NODE":269.6777,"ARG_OF_PERICENTER":289.5734,"MEAN_ANOMALY":70.5263,"EPHEMERIS_TYPE":0,"NORAD_CAT_ID":66721,"ELEMENT_SET_NO":999,"REV_AT_EPOCH":3475,"BSTAR":0.00018619312,"MEAN_MOTION_DOT":0.00003953,"MEAN_MOTION_DDOT":0},{"OBJECT_NAME":"FLOCK 4H-19","OBJECT_ID":"2025-276BJ","EPOCH":"2026-07-15T17:36:51.440544","CLASSIFICATION_TYPE":"U","MEAN_MOTION":15.21289028,"ECCENTRICITY":0.00024068,"INCLINATION":97.4171,"RA_OF_ASC_NODE":270.1402,"ARG_OF_PERICENTER":148.187,"MEAN_ANOMALY":211.9512,"EPHEMERIS_TYPE":0,"NORAD_CAT_ID":66722,"ELEMENT_SET_NO":999,"REV_AT_EPOCH":3407,"BSTAR":0.00014709918,"MEAN_MOTION_DOT":0.0000322,"MEAN_MOTION_DDOT":0},{"OBJECT_NAME":"FLOCK 4H-20","OBJECT_ID":"2025-276BK","EPOCH":"2026-07-15T17:39:51.955200","CLASSIFICATION_TYPE":"U","MEAN_MOTION":15.21450441,"ECCENTRICITY":0.00029155,"INCLINATION":97.4207,"RA_OF_ASC_NODE":270.2485,"ARG_OF_PERICENTER":168.4856,"MEAN_ANOMALY":191.6447,"EPHEMERIS_TYPE":0,"NORAD_CAT_ID":66723,"ELEMENT_SET_NO":999,"REV_AT_EPOCH":3403,"BSTAR":0.00017606861,"MEAN_MOTION_DOT":0.00003887,"MEAN_MOTION_DDOT":0},{"OBJECT_NAME":"FLOCK 4H-21","OBJECT_ID":"2025-276BL","EPOCH":"2026-07-15T21:34:41.877984","CLASSIFICATION_TYPE":"U","MEAN_MOTION":15.21034908,"ECCENTRICITY":0.00027698,"INCLINATION":97.4175,"RA_OF_ASC_NODE":270.2326,"ARG_OF_PERICENTER":166.939,"MEAN_ANOMALY":193.1918,"EPHEMERIS_TYPE":0,"NORAD_CAT_ID":66724,"ELEMENT_SET_NO":999,"REV_AT_EPOCH":3405,"BSTAR":0.0001529994,"MEAN_MOTION_DOT":0.00003327,"MEAN_MOTION_DDOT":0},{"OBJECT_NAME":"FLOCK 4H-22","OBJECT_ID":"2025-276BM","EPOCH":"2026-07-15T17:54:54.453312","CLASSIFICATION_TYPE":"U","MEAN_MOTION":15.20528411,"ECCENTRICITY":0.00010343,"INCLINATION":97.4165,"RA_OF_ASC_NODE":269.7924,"ARG_OF_PERICENTER":292.1576,"MEAN_ANOMALY":67.955,"EPHEMERIS_TYPE":0,"NORAD_CAT_ID":66725,"ELEMENT_SET_NO":999,"REV_AT_EPOCH":3476,"BSTAR":0.00020900725,"MEAN_MOTION_DOT":0.00004503,"MEAN_MOTION_DDOT":0},{"OBJECT_NAME":"FLOCK 4H-23","OBJECT_ID":"2025-276BN","EPOCH":"2026-07-15T17:37:34.462560","CLASSIFICATION_TYPE":"U","MEAN_MOTION":15.20075272,"ECCENTRICITY":0.00030497,"INCLINATION":97.4234,"RA_OF_ASC_NODE":269.8653,"ARG_OF_PERICENTER":241.6485,"MEAN_ANOMALY":118.4443,"EPHEMERIS_TYPE":0,"NORAD_CAT_ID":66726,"ELEMENT_SET_NO":999,"REV_AT_EPOCH":3475,"BSTAR":0.00018175776,"MEAN_MOTION_DOT":0.00003855,"MEAN_MOTION_DDOT":0},{"OBJECT_NAME":"FLOCK 4H-24","OBJECT_ID":"2025-276BP","EPOCH":"2026-07-15T18:50:23.786592","CLASSIFICATION_TYPE":"U","MEAN_MOTION":15.20185342,"ECCENTRICITY":0.00023964,"INCLINATION":97.4229,"RA_OF_ASC_NODE":269.9441,"ARG_OF_PERICENTER":263.8431,"MEAN_ANOMALY":96.2532,"EPHEMERIS_TYPE":0,"NORAD_CAT_ID":66727,"ELEMENT_SET_NO":999,"REV_AT_EPOCH":3476,"BSTAR":0.0001757099,"MEAN_MOTION_DOT":0.00003736,"MEAN_MOTION_DDOT":0},{"OBJECT_NAME":"FLOCK 4H-25","OBJECT_ID":"2025-276BQ","EPOCH":"2026-07-15T18:51:53.088768","CLASSIFICATION_TYPE":"U","MEAN_MOTION":15.20950903,"ECCENTRICITY":0.0001866,"INCLINATION":97.4186,"RA_OF_ASC_NODE":270.1126,"ARG_OF_PERICENTER":126.5029,"MEAN_ANOMALY":233.6379,"EPHEMERIS_TYPE":0,"NORAD_CAT_ID":66728,"ELEMENT_SET_NO":999,"REV_AT_EPOCH":3406,"BSTAR":0.00017041104,"MEAN_MOTION_DOT":0.00003704,"MEAN_MOTION_DDOT":0},{"OBJECT_NAME":"FLOCK 4H-26","OBJECT_ID":"2025-276BR","EPOCH":"2026-07-15T18:03:53.639424","CLASSIFICATION_TYPE":"U","MEAN_MOTION":15.19907464,"ECCENTRICITY":0.00032156,"INCLINATION":97.4185,"RA_OF_ASC_NODE":269.6937,"ARG_OF_PERICENTER":262.4492,"MEAN_ANOMALY":97.6378,"EPHEMERIS_TYPE":0,"NORAD_CAT_ID":66729,"ELEMENT_SET_NO":999,"REV_AT_EPOCH":3475,"BSTAR":0.00018889099,"MEAN_MOTION_DOT":0.00003989,"MEAN_MOTION_DDOT":0},{"OBJECT_NAME":"FLOCK 4H-27","OBJECT_ID":"2025-276BS","EPOCH":"2026-07-15T18:01:19.339392","CLASSIFICATION_TYPE":"U","MEAN_MOTION":15.20773218,"ECCENTRICITY":0.00016102,"INCLINATION":97.4162,"RA_OF_ASC_NODE":269.9311,"ARG_OF_PERICENTER":127.9083,"MEAN_ANOMALY":232.2298,"EPHEMERIS_TYPE":0,"NORAD_CAT_ID":66730,"ELEMENT_SET_NO":999,"REV_AT_EPOCH":3477,"BSTAR":0.0001742863,"MEAN_MOTION_DOT":0.0000377,"MEAN_MOTION_DDOT":0},{"OBJECT_NAME":"FLOCK 4H-29","OBJECT_ID":"2025-276BU","EPOCH":"2026-07-15T17:34:20.533440","CLASSIFICATION_TYPE":"U","MEAN_MOTION":15.20048285,"ECCENTRICITY":0.0001658,"INCLINATION":97.4163,"RA_OF_ASC_NODE":269.6557,"ARG_OF_PERICENTER":280.9254,"MEAN_ANOMALY":79.1794,"EPHEMERIS_TYPE":0,"NORAD_CAT_ID":66732,"ELEMENT_SET_NO":999,"REV_AT_EPOCH":3475,"BSTAR":0.00018270618,"MEAN_MOTION_DOT":0.00003872,"MEAN_MOTION_DDOT":0},{"OBJECT_NAME":"FLOCK 4H-30","OBJECT_ID":"2025-276BV","EPOCH":"2026-07-15T22:06:58.705920","CLASSIFICATION_TYPE":"U","MEAN_MOTION":15.20171334,"ECCENTRICITY":0.00026572,"INCLINATION":97.4224,"RA_OF_ASC_NODE":270.0502,"ARG_OF_PERICENTER":261.6779,"MEAN_ANOMALY":98.4155,"EPHEMERIS_TYPE":0,"NORAD_CAT_ID":66733,"ELEMENT_SET_NO":999,"REV_AT_EPOCH":3478,"BSTAR":0.000160904,"MEAN_MOTION_DOT":0.00003414,"MEAN_MOTION_DDOT":0},{"OBJECT_NAME":"FLOCK 4H-31","OBJECT_ID":"2025-276BW","EPOCH":"2026-07-15T17:52:56.333280","CLASSIFICATION_TYPE":"U","MEAN_MOTION":15.19946309,"ECCENTRICITY":0.00021099,"INCLINATION":97.4162,"RA_OF_ASC_NODE":269.6357,"ARG_OF_PERICENTER":274.8009,"MEAN_ANOMALY":85.2985,"EPHEMERIS_TYPE":0,"NORAD_CAT_ID":66734,"ELEMENT_SET_NO":999,"REV_AT_EPOCH":3475,"BSTAR":0.00018623431,"MEAN_MOTION_DOT":0.00003937,"MEAN_MOTION_DDOT":0},{"OBJECT_NAME":"FLOCK 4H-32","OBJECT_ID":"2025-276BX","EPOCH":"2026-07-15T17:35:27.792384","CLASSIFICATION_TYPE":"U","MEAN_MOTION":15.20066063,"ECCENTRICITY":0.00030569,"INCLINATION":97.4217,"RA_OF_ASC_NODE":269.8204,"ARG_OF_PERICENTER":259.3615,"MEAN_ANOMALY":100.7276,"EPHEMERIS_TYPE":0,"NORAD_CAT_ID":66735,"ELEMENT_SET_NO":999,"REV_AT_EPOCH":3475,"BSTAR":0.0001769132,"MEAN_MOTION_DOT":0.00003749,"MEAN_MOTION_DDOT":0},{"OBJECT_NAME":"FLOCK 4H-33","OBJECT_ID":"2025-276BY","EPOCH":"2026-07-15T18:09:23.105088","CLASSIFICATION_TYPE":"U","MEAN_MOTION":15.21193729,"ECCENTRICITY":0.00027594,"INCLINATION":97.4214,"RA_OF_ASC_NODE":270.2376,"ARG_OF_PERICENTER":161.4713,"MEAN_ANOMALY":198.6623,"EPHEMERIS_TYPE":0,"NORAD_CAT_ID":66736,"ELEMENT_SET_NO":999,"REV_AT_EPOCH":3478,"BSTAR":0.00017416001,"MEAN_MOTION_DOT":0.00003815,"MEAN_MOTION_DDOT":0}]}
