FLOCK 4H-16             
1 66719U 25276BF  26196.72889248  .00003725  00000+0  17532-3 0  9990
2 66719  97.4228 269.8584 0002814 253.9954 106.0971 15.20155057 34751
FLOCK 4H-18             
1 66721U 25276BH  26196.73508224  .00003953  00000+0  18619-3 0  9996
2 66721  97.4171 269.6777 0002205 289.5734  70.5263 15.20096628 34755
FLOCK 4H-19             
1 66722U 25276BJ  26196.73392871  .00003220  00000+0  14710-3 0  9991
2 66722  97.4171 270.1402 0002406 148.1870 211.9512 15.21289028 34074
FLOCK 4H-20             
1 66723U 25276BK  26196.73601800  .00003887  00000+0  17607-3 0  9994
2 66723  97.4207 270.2485 0002915 168.4856 191.6447 15.21450441 34037
FLOCK 4H-21             
1 66724U 25276BL  26196.89909581  .00003327  00000+0  15300-3 0  9996
2 66724  97.4175 270.2326 0002769 166.9390 193.1918 15.21034908 34057
FLOCK 4H-22             
1 66725U 25276BM  26196.74646358  .00004503  00000+0  20901-3 0  9991
2 66725  97.4165 269.7924 0001034 292.1576  67.9550 15.20528411 34760
FLOCK 4H-23             
1 66726U 25276BN  26196.73442665  .00003855  00000+0  18176-3 0  9996
2 66726  97.4234 269.8653 0003049 241.6485 118.4443 15.20075272 34758
FLOCK 4H-24             
1 66727U 25276BP  26196.78499753  .00003736  00000+0  17571-3 0  9998
2 66727  97.4229 269.9441 0002396 263.8431  96.2532 15.20185342 34763
FLOCK 4H-25             
1 66728U 25276BQ  26196.78603112  .00003704  00000+0  17041-3 0  9992
2 66728  97.4186 270.1126 0001866 126.5029 233.6379 15.20950903 34061
FLOCK 4H-26             
1 66729U 25276BR  26196.75270416  .00003989  00000+0  18889-3 0  9993
2 66729  97.4185 269.6937 0003215 262.4492  97.6378 15.19907464 34753
FLOCK 4H-27             
1 66730U 25276BS  26196.75091828  .00003770  00000+0  17429-3 0  9990
2 66730  97.4162 269.9311 0001610 127.9083 232.2298 15.20773218 34777
FLOCK 4H-29             
1 66732U 25276BU  26196.73218210  .00003872  00000+0  18271-3 0  9995
2 66732  97.4163 269.6557 0001658 280.9254  79.1794 15.20048285 34757
FLOCK 4H-30             
1 66733U 25276BV  26196.92151280  .00003414  00000+0  16090-3 0  9999
2 66733  97.4224 270.0502 0002657 261.6779  98.4155 15.20171334 34780
FLOCK 4H-31             
1 66734U 25276BW  26196.74509645  .00003937  00000+0  18623-3 0  9996
2 66734  97.4162 269.6357 0002109 274.8009  85.2985 15.19946309 34750
FLOCK 4H-32             
1 66735U 25276BX  26196.73296056  .00003749  00000+0  17691-3 0  9990
2 66735  97.4217 269.8204 0003056 259.3615 100.7276 15.20066063 34756
FLOCK 4H-33             
1 66736U 25276BY  26196.75651742  .00003815  00000+0  17416-3 0  9999
2 66736  97.4214 270.2376 0002759 161.4713 198.6623 15.21193729 34787
